IRIDIUM 171             
1 43929U 19002H   25341.22813608  .00000049  00000+0  10388-4 0  9990
2 43929  86.3975  74.1064 0002213 102.2279 257.9165 14.34217567361443
IRIDIUM 170             
1 43930U 19002J   25341.15639922  .00001072  00000+0  16617-3 0  9996
2 43930  86.6086  73.8504 0002231  91.7696 268.3777 14.72242390371003
IRIDIUM 167             
1 43931U 19002K   25341.15202425  .00000218  00000+0  70604-4 0  9999
2 43931  86.3967  73.8739 0002211 107.2236 252.9202 14.34216740361436
IRIDIUM 181             
1 56726U 23068S   25340.92538226  .00000513  00000+0  14633-3 0  9994
2 56726  86.4509 137.1539 0002604  88.1609 271.9890 14.43316837134704
IRIDIUM 177             
1 56727U 23068T   25341.19882853  .00002789  00000+0  36354-3 0  9994
2 56727  86.1971  59.9615 0002324  85.7216 274.4271 14.80234283137964
IRIDIUM 174             
1 56728U 23068U   25341.14403742  .00001497  00000+0  23344-3 0  9996
2 56728  86.6091  73.9836 0002240  86.7850 273.3623 14.72249454137760
IRIDIUM 178             
1 56729U 23068V   25341.32311832  .00003005  00000+0  39205-3 0  9995
2 56729  86.6535 105.5619 0002368 100.6620 259.4869 14.80222489137986
IRIDIUM 179             
1 56730U 23068W   25341.31773531  .00003529  00000+0  46104-3 0  9991
2 56730  86.6776 113.9706 0002544  94.2985 265.8528 14.80221980137981
